{"type": "FeatureCollection", "features": [ {"type": "Feature", "properties": {"norad_id": 66333, "name": "STARLINK-35400", "group": "last-30-days", "lat": 11.861275026791523, "lon": -147.12441513248132, "alt_km": 413.0153953516574, "timestamp": "2025-12-02T06:27:51.799684+00:00", "meta": {"OBJECT_NAME": "STARLINK-35400", "OBJECT_ID": "2025-253Q", "EPOCH": "2025-12-01T14:18:31.799232", "MEAN_MOTION": 15.50629788, "ECCENTRICITY": 0.00025495, "INCLINATION": 43.0009, "RA_OF_ASC_NODE": 49.8398, "ARG_OF_PERICENTER": 260.7267, "MEAN_ANOMALY": 99.3305, "EPHEMERIS_TYPE": 0, "CLASSIFICATION_TYPE": "U", "NORAD_CAT_ID": 66333, "ELEMENT_SET_NO": 999, "REV_AT_EPOCH": 520, "BSTAR": 0.0015288363, "MEAN_MOTION_DOT": 0.00090561, "MEAN_MOTION_DDOT": 0}, "tle": {"line1": "1 66333U 25253Q   25335.59620138  .00090561  00000+0  15288-2 0  9996", "line2": "2 66333  43.0009  49.8398 0002549 260.7267  99.3305 15.50629788  5207"}}, "geometry": {"type": "Point", "coordinates": [-147.12441513248132, 11.861275026791523]}}, {"type": "Feature", "properties": {"norad_id": 66334, "name": "STARLINK-35407", "group": "last-30-days", "lat": 15.474446370159187, "lon": -151.36821632216524, "alt_km": 412.4291346544169, "timestamp": "2025-12-02T06:27:51.799695+00:00", "meta": {"OBJECT_NAME": "STARLINK-35407", "OBJECT_ID": "2025-253R", "EPOCH": "2025-11-30T16:41:25.488960", "MEAN_MOTION": 15.50547998, "ECCENTRICITY": 9.092e-05, "INCLINATION": 43.0003, "RA_OF_ASC_NODE": 55.1243, "ARG_OF_PERICENTER": 295.1018, "MEAN_ANOMALY": 64.9747, "EPHEMERIS_TYPE": 0, "CLASSIFICATION_TYPE": "U", "NORAD_CAT_ID": 66334, "ELEMENT_SET_NO": 999, "REV_AT_EPOCH": 506, "BSTAR": 0.0013875162, "MEAN_MOTION_DOT": 0.00081821, "MEAN_MOTION_DDOT": 0}, "tle": {"line1": "1 66334U 25253R   25334.69543390  .00081821  00000+0  13875-2 0  9990", "line2": "2 66334  43.0003  55.1243 0000909 295.1018  64.9747 15.50547998  5069"}}, "geometry": {"type": "Point", "coordinates": [-151.36821632216524, 15.474446370159187]}}, {"type": "Feature", "properties": {"norad_id": 66335, "name": "STARLINK-35417", "group": "last-30-days", "lat": 37.082147460105226, "lon": 100.34477762435291, "alt_km": 438.96005949090977, "timestamp": "2025-12-02T06:27:51.799706+00:00", "meta": {"OBJECT_NAME": "STARLINK-35417", "OBJECT_ID": "2025-253S", "EPOCH": "2025-12-01T20:00:01.999008", "MEAN_MOTION": 15.40687238, "ECCENTRICITY": 0.000139, "INCLINATION": 43.0008, "RA_OF_ASC_NODE": 48.6588, "ARG_OF_PERICENTER": 267.9074, "MEAN_ANOMALY": 253.1942, "EPHEMERIS_TYPE": 0, "CLASSIFICATION_TYPE": "U", "NORAD_CAT_ID": 66335, "ELEMENT_SET_NO": 999, "REV_AT_EPOCH": 517, "BSTAR": 0.00041054, "MEAN_MOTION_DOT": 0.00016876, "MEAN_MOTION_DDOT": 0}, "tle": {"line1": "1 66335U 25253S   25335.83335647  .00016876  00000+0  41054-3 0  9991", "line2": "2 66335  43.0008  48.6588 0001390 267.9074 253.1942 15.40687238  5170"}}, "geometry": {"type": "Point", "coordinates": [100.34477762435291, 37.082147460105226]}}, {"type": "Feature", "properties": {"norad_id": 66336, "name": "STARLINK-35404", "group": "last-30-days", "lat": 9.361331158894032, "lon": -144.29675036217677, "alt_km": 413.7794029843326, "timestamp": "2025-12-02T06:27:51.799716+00:00", "meta": {"OBJECT_NAME": "STARLINK-35404", "OBJECT_ID": "2025-253T", "EPOCH": "2025-12-01T14:17:33.002304", "MEAN_MOTION": 15.50603343, "ECCENTRICITY": 0.00016041, "INCLINATION": 43.0007, "RA_OF_ASC_NODE": 49.8357, "ARG_OF_PERICENTER": 288.4901, "MEAN_ANOMALY": 71.5784, "EPHEMERIS_TYPE": 0, "CLASSIFICATION_TYPE": "U", "NORAD_CAT_ID": 66336, "ELEMENT_SET_NO": 999, "REV_AT_EPOCH": 520, "BSTAR": 0.0012973649, "MEAN_MOTION_DOT": 0.00076583, "MEAN_MOTION_DDOT": 0}, "tle": {"line1": "1 66336U 25253T   25335.59552086  .00076583  00000+0  12974-2 0  9992", "line2": "2 66336  43.0007  49.8357 0001604 288.4901  71.5784 15.50603343  5208"}}, "geometry": {"type": "Point", "coordinates": [-144.29675036217677, 9.361331158894032]}}, {"type": "Feature", "properties": {"norad_id": 66337, "name": "STARLINK-34783", "group": "last-30-days", "lat": 42.908212724315234, "lon": 132.01475211526085, "alt_km": 438.4520594007272, "timestamp": "2025-12-02T06:27:51.799727+00:00", "meta": {"OBJECT_NAME": "STARLINK-34783", "OBJECT_ID": "2025-253U", "EPOCH": "2025-12-01T20:00:01.999008", "MEAN_MOTION": 15.40695935, "ECCENTRICITY": 0.0001898, "INCLINATION": 43.0007, "RA_OF_ASC_NODE": 48.5996, "ARG_OF_PERICENTER": 272.9318, "MEAN_ANOMALY": 272.9585, "EPHEMERIS_TYPE": 0, "CLASSIFICATION_TYPE": "U", "NORAD_CAT_ID": 66337, "ELEMENT_SET_NO": 999, "REV_AT_EPOCH": 522, "BSTAR": 0.0006234, "MEAN_MOTION_DOT": 0.00025822, "MEAN_MOTION_DDOT": 0}, "tle": {"line1": "1 66337U 25253U   25335.83335647  .00025822  00000+0  62340-3 0  9995", "line2": "2 66337  43.0007  48.5996 0001898 272.9318 272.9585 15.40695935  5224"}}, "geometry": {"type": "Point", "coordinates": [132.01475211526085, 42.908212724315234]}}, {"type": "Feature", "properties": {"norad_id": 66338, "name": "STARLINK-35477", "group": "last-30-days", "lat": 31.33596489263708, "lon": 86.97365140861842, "alt_km": 439.4392612829879, "timestamp": "2025-12-02T06:27:51.799737+00:00", "meta": {"OBJECT_NAME": "STARLINK-35477", "OBJECT_ID": "2025-253V", "EPOCH": "2025-12-01T20:00:01.999008", "MEAN_MOTION": 15.40677338, "ECCENTRICITY": 8.79e-05, "INCLINATION": 43.0004, "RA_OF_ASC_NODE": 48.6892, "ARG_OF_PERICENTER": 275.3684, "MEAN_ANOMALY": 233.2878, "EPHEMERIS_TYPE": 0, "CLASSIFICATION_TYPE": "U", "NORAD_CAT_ID": 66338, "ELEMENT_SET_NO": 999, "REV_AT_EPOCH": 527, "BSTAR": 0.00072139, "MEAN_MOTION_DOT": 0.00029926, "MEAN_MOTION_DDOT": 0}, "tle": {"line1": "1 66338U 25253V   25335.83335647  .00029926  00000+0  72139-3 0  9992", "line2": "2 66338  43.0004  48.6892 0000879 275.3684 233.2878 15.40677338  5276"}}, "geometry": {"type": "Point", "coordinates": [86.97365140861842, 31.33596489263708]}}, {"type": "Feature", "properties": {"norad_id": 66339, "name": "STARLINK-35443", "group": "last-30-days", "lat": 0.13926677425911205, "lon": -134.29188778003763, "alt_km": 414.08309710480535, "timestamp": "2025-12-02T06:27:51.799748+00:00", "meta": {"OBJECT_NAME": "STARLINK-35443", "OBJECT_ID": "2025-253W", "EPOCH": "2025-12-01T14:14:04.627968", "MEAN_MOTION": 15.50646058, "ECCENTRICITY": 0.00043381, "INCLINATION": 42.9999, "RA_OF_ASC_NODE": 49.8149, "ARG_OF_PERICENTER": 264.7706, "MEAN_ANOMALY": 95.2659, "EPHEMERIS_TYPE": 0, "CLASSIFICATION_TYPE": "U", "NORAD_CAT_ID": 66339, "ELEMENT_SET_NO": 999, "REV_AT_EPOCH": 520, "BSTAR": 0.0020945977, "MEAN_MOTION_DOT": 0.00124844, "MEAN_MOTION_DDOT": 0}, "tle": {"line1": "1 66339U 25253W   25335.59310912  .00124844  00000+0  20946-2 0  9997", "line2": "2 66339  42.9999  49.8149 0004338 264.7706  95.2659 15.50646058  5209"}}, "geometry": {"type": "Point", "coordinates": [-134.29188778003763, 0.13926677425911205]}}, {"type": "Feature", "properties": {"norad_id": 66340, "name": "STARLINK-35218", "group": "last-30-days", "lat": 8.014472786721718, "lon": -142.80272304667392, "alt_km": 413.7071550555893, "timestamp": "2025-12-02T06:27:51.799758+00:00", "meta": {"OBJECT_NAME": "STARLINK-35218", "OBJECT_ID": "2025-253X", "EPOCH": "2025-12-01T14:17:03.181344", "MEAN_MOTION": 15.50618519, "ECCENTRICITY": 0.00019254, "INCLINATION": 43.0003, "RA_OF_ASC_NODE": 49.8326, "ARG_OF_PERICENTER": 277.9087, "MEAN_ANOMALY": 82.1554, "EPHEMERIS_TYPE": 0, "CLASSIFICATION_TYPE": "U", "NORAD_CAT_ID": 66340, "ELEMENT_SET_NO": 999, "REV_AT_EPOCH": 520, "BSTAR": 0.0017664501, "MEAN_MOTION_DOT": 0.00104835, "MEAN_MOTION_DDOT": 0}, "tle": {"line1": "1 66340U 25253X   25335.59517571  .00104835  00000+0  17665-2 0  9991", "line2": "2 66340  43.0003  49.8326 0001925 277.9087  82.1554 15.50618519  5203"}}, "geometry": {"type": "Point", "coordinates": [-142.80272304667392, 8.014472786721718]}}, {"type": "Feature", "properties": {"norad_id": 66341, "name": "STARLINK-35522", "group": "last-30-days", "lat": 13.120340155093496, "lon": -148.57652521932064, "alt_km": 413.2376607410015, "timestamp": "2025-12-02T06:27:51.799769+00:00", "meta": {"OBJECT_NAME": "STARLINK-35522", "OBJECT_ID": "2025-253Y", "EPOCH": "2025-12-01T12:46:16.189248", "MEAN_MOTION": 15.50630105, "ECCENTRICITY": 0.0001633, "INCLINATION": 43.0004, "RA_OF_ASC_NODE": 50.2222, "ARG_OF_PERICENTER": 288.493, "MEAN_ANOMALY": 71.5752, "EPHEMERIS_TYPE": 0, "CLASSIFICATION_TYPE": "U", "NORAD_CAT_ID": 66341, "ELEMENT_SET_NO": 999, "REV_AT_EPOCH": 519, "BSTAR": 0.0011951204, "MEAN_MOTION_DOT": 0.00070534, "MEAN_MOTION_DDOT": 0}, "tle": {"line1": "1 66341U 25253Y   25335.53213182  .00070534  00000+0  11951-2 0  9997", "line2": "2 66341  43.0004  50.2222 0001633 288.4930  71.5752 15.50630105  5191"}}, "geometry": {"type": "Point", "coordinates": [-148.57652521932064, 13.120340155093496]}}, {"type": "Feature", "properties": {"norad_id": 66342, "name": "STARLINK-35535", "group": "last-30-days", "lat": 20.7781112412005, "lon": -158.09024596644997, "alt_km": 437.30284178264446, "timestamp": "2025-12-02T06:27:51.799779+00:00", "meta": {"OBJECT_NAME": "STARLINK-35535", "OBJECT_ID": "2025-253Z", "EPOCH": "2025-12-01T20:00:01.999008", "MEAN_MOTION": 15.44044577, "ECCENTRICITY": 0.0001075, "INCLINATION": 42.9998, "RA_OF_ASC_NODE": 48.4595, "ARG_OF_PERICENTER": 277.0388, "MEAN_ANOMALY": 326.6712, "EPHEMERIS_TYPE": 0, "CLASSIFICATION_TYPE": "U", "NORAD_CAT_ID": 66342, "ELEMENT_SET_NO": 999, "REV_AT_EPOCH": 517, "BSTAR": -0.048142, "MEAN_MOTION_DOT": -0.02005073, "MEAN_MOTION_DDOT": 0}, "tle": {"line1": "1 66342U 25253Z   25335.83335647 -.02005073  00000+0 -48142-1 0  9993", "line2": "2 66342  42.9998  48.4595 0001075 277.0388 326.6712 15.44044577  5178"}}, "geometry": {"type": "Point", "coordinates": [-158.09024596644997, 20.7781112412005]}}]}